STARLINK-1913
1 27179C 20088BK  21325.15035434  .00001767  00000-0  11838-3 0  3252
2 27179  53.0511 157.5528 0002033  79.8419 169.7650 15.06405272    11
